JILIN-1 GAOFEN 3A       
1 44312U 19032C   26068.74542089  .00016264  00000+0  55381-3 0  9993
2 44312  44.9746 183.2861 0002618 111.2900 248.8263 15.30271310372592
STARLINK-34400          
1 64463U 25130AB  26068.34002696  .00014109  00000+0  48788-3 0  9998
2 64463  53.1599  92.7018 0001759  96.8048 263.3153 15.30180001 40614
